[{"OBJECT_NAME":"STARLINK-5819","OBJECT_ID":"2023-028AR","EPOCH":"2026-03-09T20:46:13.421568","MEAN_MOTION":14.98332198,"ECCENTRICITY":0.00027975,"INCLINATION":69.9999,"RA_OF_ASC_NODE":223.8414,"ARG_OF_PERICENTER":270.8149,"MEAN_ANOMALY":89.269,"EPHEMERIS_TYPE":0,"CLASSIFICATION_TYPE":"U","NORAD_CAT_ID":55780,"ELEMENT_SET_NO":999,"REV_AT_EPOCH":16656,"BSTAR":4.1584442e-5,"MEAN_MOTION_DOT":4.03e-6,"MEAN_MOTION_DDOT":0},{"OBJECT_NAME":"NOAA 17 DEB","OBJECT_ID":"2002-032AW","EPOCH":"2026-03-09T06:42:02.833344","MEAN_MOTION":15.0155296,"ECCENTRICITY":0.0036655,"INCLINATION":98.9692,"RA_OF_ASC_NODE":191.508,"ARG_OF_PERICENTER":264.8759,"MEAN_ANOMALY":94.8277,"EPHEMERIS_TYPE":0,"CLASSIFICATION_TYPE":"U","NORAD_CAT_ID":48713,"ELEMENT_SET_NO":999,"REV_AT_EPOCH":26502,"BSTAR":0.0031489084,"MEAN_MOTION_DOT":0.00041514,"MEAN_MOTION_DDOT":0}]
